STARLINK-1965
1 47566U 21009U   26092.83335647  .00598796  16225-3  13922-2 0  9990
2 47566  53.0077 159.8666 0005987 341.3496 191.7951 15.96507265  5994
